NORAD_CAT_ID,OBJECT_NAME,OBJECT_TYPE,EPOCH,MEAN_MOTION,ECCENTRICITY,INCLINATION,RA_OF_ASC_NODE,ARG_OF_PERICENTER,MEAN_ANOMALY,BSTAR,MEAN_MOTION_DOT,MEAN_MOTION_DDOT,TLE_LINE0,TLE_LINE1,TLE_LINE2,SEMIMAJOR_AXIS,PERIOD,APOGEE,PERIGEE,DECAYED
53721.0,STARLINK-4707,PAYLOAD,2023-03-07 16:18:03,15.08893148,8.97e-05,53.217,143.1171,89.9163,270.1932,0.0039673,0.00063513,0.0,0 STARLINK-4707,1 53721U 22107X   23066.67920437  .00063513  00000-0  39673-2 0  9993,2 53721  53.2170 143.1171 0000897  89.9163 270.1932 15.08893148 28197,6917.718,95.434,540.203,538.962,0.0
53721.0,STARLINK-4707,PAYLOAD,2023-03-07 22:39:36,15.08807869,0.0001401,53.2154,141.9273,117.2011,242.9124,0.0026335,0.00041836,0.0,0 STARLINK-4707,1 53721U 22107X   23066.94416972  .00041836  00000-0  26335-2 0  9992,2 53721  53.2154 141.9273 0001401 117.2011 242.9124 15.08807869 28237,6917.979,95.44,540.813,538.874,0.0
53721.0,STARLINK-4707,PAYLOAD,2023-03-08 09:47:18,15.08824992,0.0001402,53.2166,139.8471,116.8156,243.298,0.0013237,0.00020833,0.0,0 STARLINK-4707,1 53721U 22107X   23067.40785808  .00020833  00000-0  13237-2 0  9992,2 53721  53.2166 139.8471 0001402 116.8156 243.2980 15.08824992 28300,6917.926,95.439,540.761,538.821,0.0
53721.0,STARLINK-4707,PAYLOAD,2023-03-09 11:13:29,15.08860938,0.0001313,53.2168,135.09,109.3832,250.7302,0.0012864,0.00020256,0.0,0 STARLINK-4707,1 53721U 22107X   23068.46769809  .00020256  00000-0  12864-2 0  9996,2 53721  53.2168 135.0900 0001313 109.3832 250.7302 15.08860938 28464,6917.816,95.436,540.59,538.773,0.0
53721.0,STARLINK-4707,PAYLOAD,2023-03-09 20:45:47,15.08856092,0.0001266,53.2177,133.3059,107.7883,252.3247,0.00088534,0.00013836,0.0,0 STARLINK-4707,1 53721U 22107X   23068.86513676  .00013836  00000-0  88534-3 0  9993,2 53721  53.2177 133.3059 0001266 107.7883 252.3247 15.08856092 28984,6917.831,95.437,540.572,538.82,0.0
53721.0,STARLINK-4707,PAYLOAD,2023-03-10 04:42:43,15.08846179,0.0001879,53.2191,131.8231,118.0085,242.1098,0.00091795,0.00014354,0.0,0 STARLINK-4707,1 53721U 22107X   23069.19633751  .00014354  00000-0  91795-3 0  9996,2 53721  53.2191 131.8231 0001879 118.0085 242.1098 15.08846179 28575,6917.862,95.437,541.026,538.427,0.0
53721.0,STARLINK-4707,PAYLOAD,2023-03-10 11:04:15,15.08863352,0.0001683,53.2189,130.6341,121.1667,238.949,0.00091766,0.00014356,0.0,0 STARLINK-4707,1 53721U 22107X   23069.46129282  .00014356  00000-0  91766-3 0  9995,2 53721  53.2189 130.6341 0001683 121.1667 238.9490 15.08863352 28611,6917.809,95.436,540.838,538.51,0.0
53721.0,STARLINK-4707,PAYLOAD,2023-03-10 20:36:34,15.08853255,0.0001181,53.2175,128.8464,99.6246,260.4879,0.00055557,8.568e-05,0.0,0 STARLINK-4707,1 53721U 22107X   23069.85873293  .00008568  00000-0  55557-3 0  9992,2 53721  53.2175 128.8464 0001181  99.6246 260.4879 15.08853255 29136,6917.84,95.437,540.522,538.888,0.0
53721.0,STARLINK-4707,PAYLOAD,2023-03-11 02:58:07,15.08827829,0.0001858,53.2172,127.6563,80.133,279.9872,-0.000121,-2.213e-05,0.0,0 STARLINK-4707,1 53721U 22107X   23070.12370148 -.00002213  00000-0 -12100-3 0  9995,2 53721  53.2172 127.6563 0001858  80.1330 279.9872 15.08827829 28719,6917.918,95.438,541.068,538.497,0.0
53721.0,STARLINK-4707,PAYLOAD,2023-03-11 09:19:40,15.08822434,0.0001248,53.2173,126.468,90.225,269.8885,-0.00018995,-3.308e-05,0.0,0 STARLINK-4707,1 53721U 22107X   23070.38866373 -.00003308  00000-0 -18995-3 0  9997,2 53721  53.2173 126.4680 0001248  90.2250 269.8885 15.08822434 29218,6917.934,95.439,540.662,538.936,0.0
53721.0,STARLINK-4707,PAYLOAD,2023-03-11 14:05:50,15.08835525,0.0001262,53.2174,125.5753,79.3376,280.7758,0.00065985,0.00010228,0.0,0 STARLINK-4707,1 53721U 22107X   23070.58738473  .00010228  00000-0  65985-3 0  9996,2 53721  53.2174 125.5753 0001262  79.3376 280.7758 15.08835525 28780,6917.894,95.438,540.632,538.886,0.0
53721.0,STARLINK-4707,PAYLOAD,2023-03-12 12:21:14,15.08847567,0.0001302,53.2164,121.4129,78.4289,281.6849,0.0013497,0.00021262,0.0,0 STARLINK-4707,1 53721U 22107X   23071.51475344  .00021262  00000-0  13497-2 0  9995,2 53721  53.2164 121.4129 0001302  78.4289 281.6849 15.08847567 28925,6917.857,95.437,540.623,538.822,0.0
53721.0,STARLINK-4707,PAYLOAD,2023-03-13 23:19:42,15.08856155,0.0001031,53.216,114.865,111.9642,248.146,0.00060093,9.293e-05,0.0,0 STARLINK-4707,1 53721U 22107X   23072.97202516  .00009293  00000-0  60093-3 0  9990,2 53721  53.2160 114.8650 0001031 111.9642 248.1460 15.08856155 29146,6917.831,95.437,540.409,538.983,0.0
53721.0,STARLINK-4707,PAYLOAD,2023-03-14 08:52:01,15.08837276,0.0001714,53.2163,113.0833,120.7994,239.3167,0.00024967,3.687e-05,0.0,0 STARLINK-4707,1 53721U 22107X   23073.36946529  .00003687  00000-0  24967-3 0  9994,2 53721  53.2163 113.0833 0001714 120.7994 239.3167 15.08837276 29205,6917.889,95.438,540.939,538.568,0.0
53721.0,STARLINK-4707,PAYLOAD,2023-03-14 19:59:43,15.08844497,0.0001477,53.2159,111.0015,106.2341,253.8814,0.00056185,8.666e-05,0.0,0 STARLINK-4707,1 53721U 22107X   23073.83314744  .00008666  00000-0  56185-3 0  9993,2 53721  53.2159 111.0015 0001477 106.2341 253.8814 15.08844497 29732,6917.867,95.437,540.753,538.71,0.0
53721.0,STARLINK-4707,PAYLOAD,2023-03-15 08:42:48,15.08862734,0.0001556,53.2161,108.6242,96.2055,263.9115,0.00092878,0.00014534,0.0,0 STARLINK-4707,1 53721U 22107X   23074.36306278  .00014534  00000-0  92878-3 0  9995,2 53721  53.2161 108.6242 0001556  96.2055 263.9115 15.08862734 29355,6917.811,95.436,540.752,538.599,0.0
53721.0,STARLINK-4707,PAYLOAD,2023-03-15 13:28:57,15.08879431,0.0001604,53.2162,107.73,108.3871,251.7296,0.0013193,0.00020794,0.0,0 STARLINK-4707,1 53721U 22107X   23074.56177604  .00020794  00000-0  13193-2 0  9993,2 53721  53.2162 107.7300 0001604 108.3871 251.7296 15.08879431 29386,6917.76,95.435,540.734,538.515,0.0
53721.0,STARLINK-4707,PAYLOAD,2023-03-16 05:22:49,15.08842641,0.0001508,53.2166,104.7583,113.9165,246.1985,6.6879e-05,7.77e-06,0.0,0 STARLINK-4707,1 53721U 22107X   23075.22418182  .00000777  00000-0  66879-4 0  9996,2 53721  53.2166 104.7583 0001508 113.9165 246.1985 15.08842641 29488,6917.872,95.437,540.781,538.694,0.0
53721.0,STARLINK-4707,PAYLOAD,2023-03-16 11:44:21,15.08843348,0.0001434,53.2182,103.5679,102.4438,257.6715,0.00043468,6.637e-05,0.0,0 STARLINK-4707,1 53721U 22107X   23075.48914314  .00006637  00000-0  43468-3 0  9991,2 53721  53.2182 103.5679 0001434 102.4438 257.6715 15.08843348 29981,6917.87,95.437,540.727,538.743,0.0
53721.0,STARLINK-4707,PAYLOAD,2023-03-16 13:19:44,15.08846402,0.0001519,53.218,103.2705,118.8817,241.2328,0.00065842,0.00010208,0.0,0 STARLINK-4707,1 53721U 22107X   23075.55538181  .00010208  00000-0  65842-3 0  9992,2 53721  53.2180 103.2705 0001519 118.8817 241.2328 15.08846402 29996,6917.861,95.437,540.777,538.675,0.0
53721.0,STARLINK-4707,PAYLOAD,2023-03-17 05:13:37,15.08835355,0.0001717,53.2183,100.2978,123.9588,236.1568,5.2227e-05,5.43e-06,0.0,0 STARLINK-4707,1 53721U 22107X   23076.21779028  .00000543  00000-0  52227-4 0  9998,2 53721  53.2183 100.2978 0001717 123.9588 236.1568 15.08835355 29635,6917.895,95.438,540.947,538.572,0.0
53721.0,STARLINK-4707,PAYLOAD,2023-03-17 11:35:10,15.0883526,0.0001137,53.218,99.1099,92.387,267.7252,0.00065107,0.00010088,0.0,0 STARLINK-4707,1 53721U 22107X   23076.48275469  .00010088  00000-0  65107-3 0  9992,2 53721  53.2180  99.1099 0001137  92.3870 267.7252 15.08835260 30133,6917.895,95.438,540.546,538.973,0.0
53721.0,STARLINK-4707,PAYLOAD,2023-03-17 17:56:42,15.08837943,0.000114,53.2178,97.9204,84.5272,275.585,0.00084793,0.00013232,0.0,0 STARLINK-4707,1 53721U 22107X   23076.74771652  .00013232  00000-0  84793-3 0  9992,2 53721  53.2178  97.9204 0001140  84.5272 275.5850 15.08837943 30172,6917.887,95.438,540.54,538.963,0.0
53721.0,STARLINK-4707,PAYLOAD,2023-03-18 13:01:19,15.08867976,0.0001126,53.2172,94.3518,87.5276,272.5845,0.0010423,0.00016352,0.0,0 STARLINK-4707,1 53721U 22107X   23077.54258766  .00016352  00000-0  10423-2 0  9991,2 53721  53.2172  94.3518 0001126  87.5276 272.5845 15.08867976 29837,6917.795,95.436,540.439,538.881,0.0
53721.0,STARLINK-4707,PAYLOAD,2023-03-18 17:47:29,15.08838818,0.0001167,53.2168,93.4595,97.4684,262.6441,-0.00018538,-3.237e-05,0.0,0 STARLINK-4707,1 53721U 22107X   23077.74131198 -.00003237  00000-0 -18538-3 0  9998,2 53721  53.2168  93.4595 0001167  97.4684 262.6441 15.08838818 29863,6917.884,95.438,540.556,538.942,0.0
53721.0,STARLINK-4707,PAYLOAD,2023-03-19 11:16:43,15.08850986,0.0001279,53.2164,90.1882,99.5661,260.5475,0.00075055,0.00011681,0.0,0 STARLINK-4707,1 53721U 22107X   23078.46995205  .00011681  00000-0  75055-3 0  9992,2 53721  53.2164  90.1882 0001279  99.5661 260.5475 15.08850986 29970,6917.847,95.437,540.597,538.827,0.0
53721.0,STARLINK-4707,PAYLOAD,2023-03-19 17:38:16,15.08842931,0.0001255,53.2166,88.9987,102.9825,257.1307,0.00060522,9.358e-05,0.0,0 STARLINK-4707,1 53721U 22107X   23078.73491474  .00009358  00000-0  60522-3 0  9992,2 53721  53.2166  88.9987 0001255 102.9825 257.1307 15.08842931 30012,6917.871,95.437,540.605,538.868,0.0
53721.0,STARLINK-4707,PAYLOAD,2023-03-20 07:56:44,15.08848088,0.0001341,53.2159,86.3227,105.4332,254.6808,0.00056741,8.756e-05,0.0,0 STARLINK-4707,1 53721U 22107X   23079.33107405  .00008756  00000-0  56741-3 0  9996,2 53721  53.2159  86.3227 0001341 105.4332 254.6808 15.08848088 30567,6917.856,95.437,540.648,538.793,0.0
53721.0,STARLINK-4707,PAYLOAD,2023-03-20 12:42:54,15.08852679,0.0001389,53.2157,85.4302,106.2171,253.8974,0.00062704,9.709e-05,0.0,0 STARLINK-4707,1 53721U 22107X   23079.52979235  .00009709  00000-0  62704-3 0  9990,2 53721  53.2157  85.4302 0001389 106.2171 253.8974 15.08852679 30590,6917.842,95.437,540.668,538.746,0.0
53721.0,STARLINK-4707,PAYLOAD,2023-03-21 07:47:31,15.08844176,0.0001422,53.2165,81.8623,99.9361,260.1792,0.00022855,3.352e-05,0.0,0 STARLINK-4707,1 53721U 22107X   23080.32467541  .00003352  00000-0  22855-3 0  9993,2 53721  53.2165  81.8623 0001422  99.9361 260.1792 15.08844176 30257,6917.868,95.437,540.716,538.749,0.0
